sat42226
1 42226U 81053US  20046.41052456  .00000194  00000-0  20823-3 0  9994
2 42226  82.9537  92.5139 0121013  74.0813 287.3634 13.65304777311339
